{
  "type": "FeatureCollection",
  "features": [
    {
      "type": "Feature",
      "properties": {
        "norad_id": 66463,
        "name": "STARLINK-35463",
        "group": "last-30-days",
        "lat": -31.417059633975388,
        "lon": -9.333739786166682,
        "alt_km": 380.4341597774164,
        "timestamp": "2025-12-02T17:49:10.799520+00:00",
        "meta_object_name": "STARLINK-35463",
        "meta_object_id": "2025-262H",
        "meta_epoch": "2025-12-02T12:00:05.998752",
        "meta_mean_motion": 15.64286,
        "meta_eccentricity": 0.0001641,
        "meta_inclination": 42.999,
        "meta_ra_of_asc_node": 131.1543,
        "meta_arg_of_pericenter": 262.5801,
        "meta_mean_anomaly": 40.9363,
        "meta_ephemeris_type": 0,
        "meta_classification_type": "U",
        "meta_norad_cat_id": 66463,
        "meta_element_set_no": 999,
        "meta_rev_at_epoch": 399,
        "meta_bstar": -0.024336,
        "meta_mean_motion_dot": -0.02088363,
        "meta_mean_motion_ddot": 0,
        "tle_line1": "1 66463U 25262H   25336.50006943 -.02088363  00000+0 -24336-1 0  9998",
        "tle_line2": "2 66463  42.9990 131.1543 0001641 262.5801  40.9363 15.64286000  3992"
      },
      "geometry": {
        "type": "Point",
        "coordinates": [
          -9.333739786166682,
          -31.417059633975388
        ]
      }
    },
    {
      "type": "Feature",
      "properties": {
        "norad_id": 66464,
        "name": "STARLINK-35435",
        "group": "last-30-days",
        "lat": -30.418274710668644,
        "lon": -11.230081484881222,
        "alt_km": 380.48983391991896,
        "timestamp": "2025-12-02T17:49:10.799531+00:00",
        "meta_object_name": "STARLINK-35435",
        "meta_object_id": "2025-262J",
        "meta_epoch": "2025-12-02T12:00:05.998752",
        "meta_mean_motion": 15.6429775,
        "meta_eccentricity": 0.0001608,
        "meta_inclination": 42.999,
        "meta_ra_of_asc_node": 131.1595,
        "meta_arg_of_pericenter": 267.6216,
        "meta_mean_anomaly": 33.9767,
        "meta_ephemeris_type": 0,
        "meta_classification_type": "U",
        "meta_norad_cat_id": 66464,
        "meta_element_set_no": 999,
        "meta_rev_at_epoch": 399,
        "meta_bstar": -0.024585,
        "meta_mean_motion_dot": -0.02107789,
        "meta_mean_motion_ddot": 0,
        "tle_line1": "1 66464U 25262J   25336.50006943 -.02107789  00000+0 -24585-1 0  9999",
        "tle_line2": "2 66464  42.9990 131.1595 0001608 267.6216  33.9767 15.64297750  3993"
      },
      "geometry": {
        "type": "Point",
        "coordinates": [
          -11.230081484881222,
          -30.418274710668644
        ]
      }
    },
    {
      "type": "Feature",
      "properties": {
        "norad_id": 66465,
        "name": "STARLINK-35448",
        "group": "last-30-days",
        "lat": -33.33120813712549,
        "lon": -5.408455916655731,
        "alt_km": 380.469403151782,
        "timestamp": "2025-12-02T17:49:10.799542+00:00",
        "meta_object_name": "STARLINK-35448",
        "meta_object_id": "2025-262K",
        "meta_epoch": "2025-12-02T12:00:05.998752",
        "meta_mean_motion": 15.64300234,
        "meta_eccentricity": 0.0001691,
        "meta_inclination": 42.9989,
        "meta_ra_of_asc_node": 131.1448,
        "meta_arg_of_pericenter": 262.6445,
        "meta_mean_anomaly": 44.7036,
        "meta_ephemeris_type": 0,
        "meta_classification_type": "U",
        "meta_norad_cat_id": 66465,
        "meta_element_set_no": 999,
        "meta_rev_at_epoch": 399,
        "meta_bstar": -0.024609,
        "meta_mean_motion_dot": -0.02109825,
        "meta_mean_motion_ddot": 0,
        "tle_line1": "1 66465U 25262K   25336.50006943 -.02109825  00000+0 -24609-1 0  9990",
        "tle_line2": "2 66465  42.9989 131.1448 0001691 262.6445  44.7036 15.64300234  3991"
      },
      "geometry": {
        "type": "Point",
        "coordinates": [
          -5.408455916655731,
          -33.33120813712549
        ]
      }
    },
    {
      "type": "Feature",
      "properties": {
        "norad_id": 66466,
        "name": "STARLINK-35388",
        "group": "last-30-days",
        "lat": -34.239324557327805,
        "lon": -3.3864644308097223,
        "alt_km": 380.64724530080366,
        "timestamp": "2025-12-02T17:49:10.799552+00:00",
        "meta_object_name": "STARLINK-35388",
        "meta_object_id": "2025-262L",
        "meta_epoch": "2025-12-02T12:00:05.998752",
        "meta_mean_motion": 15.6430153,
        "meta_eccentricity": 0.0001537,
        "meta_inclination": 42.999,
        "meta_ra_of_asc_node": 131.1392,
        "meta_arg_of_pericenter": 267.4632,
        "meta_mean_anomaly": 41.8008,
        "meta_ephemeris_type": 0,
        "meta_classification_type": "U",
        "meta_norad_cat_id": 66466,
        "meta_element_set_no": 999,
        "meta_rev_at_epoch": 399,
        "meta_bstar": -0.024623,
        "meta_mean_motion_dot": -0.02110804,
        "meta_mean_motion_ddot": 0,
        "tle_line1": "1 66466U 25262L   25336.50006943 -.02110804  00000+0 -24623-1 0  9996",
        "tle_line2": "2 66466  42.9990 131.1392 0001537 267.4632  41.8008 15.64301530  3999"
      },
      "geometry": {
        "type": "Point",
        "coordinates": [
          -3.3864644308097223,
          -34.239324557327805
        ]
      }
    },
    {
      "type": "Feature",
      "properties": {
        "norad_id": 66467,
        "name": "STARLINK-35682",
        "group": "last-30-days",
        "lat": -32.38946938994053,
        "lon": -7.391506927341496,
        "alt_km": 380.44596094497956,
        "timestamp": "2025-12-02T17:49:10.799566+00:00",
        "meta_object_name": "STARLINK-35682",
        "meta_object_id": "2025-262M",
        "meta_epoch": "2025-12-02T12:00:05.998752",
        "meta_mean_motion": 15.64297668,
        "meta_eccentricity": 0.0001717,
        "meta_inclination": 42.9988,
        "meta_ra_of_asc_node": 131.1496,
        "meta_arg_of_pericenter": 264.2651,
        "meta_mean_anomaly": 41.1663,
        "meta_ephemeris_type": 0,
        "meta_classification_type": "U",
        "meta_norad_cat_id": 66467,
        "meta_element_set_no": 999,
        "meta_rev_at_epoch": 399,
        "meta_bstar": -0.024565,
        "meta_mean_motion_dot": -0.0210642,
        "meta_mean_motion_ddot": 0,
        "tle_line1": "1 66467U 25262M   25336.50006943 -.02106420  00000+0 -24565-1 0  9991",
        "tle_line2": "2 66467  42.9988 131.1496 0001717 264.2651  41.1663 15.64297668  3994"
      },
      "geometry": {
        "type": "Point",
        "coordinates": [
          -7.391506927341496,
          -32.38946938994053
        ]
      }
    },
    {
      "type": "Feature",
      "properties": {
        "norad_id": 66468,
        "name": "STARLINK-35331",
        "group": "last-30-days",
        "lat": -35.11061509896911,
        "lon": -1.3264677220881709,
        "alt_km": 380.58451702990624,
        "timestamp": "2025-12-02T17:49:10.799576+00:00",
        "meta_object_name": "STARLINK-35331",
        "meta_object_id": "2025-262N",
        "meta_epoch": "2025-12-02T12:00:05.998752",
        "meta_mean_motion": 15.64285711,
        "meta_eccentricity": 0.0001694,
        "meta_inclination": 42.9991,
        "meta_ra_of_asc_node": 131.1349,
        "meta_arg_of_pericenter": 267.5379,
        "meta_mean_anomaly": 43.6444,
        "meta_ephemeris_type": 0,
        "meta_classification_type": "U",
        "meta_norad_cat_id": 66468,
        "meta_element_set_no": 999,
        "meta_rev_at_epoch": 399,
        "meta_bstar": -0.024312,
        "meta_mean_motion_dot": -0.02086615,
        "meta_mean_motion_ddot": 0,
        "tle_line1": "1 66468U 25262N   25336.50006943 -.02086615  00000+0 -24312-1 0  9995",
        "tle_line2": "2 66468  42.9991 131.1349 0001694 267.5379  43.6444 15.64285711  3993"
      },
      "geometry": {
        "type": "Point",
        "coordinates": [
          -1.3264677220881709,
          -35.11061509896911
        ]
      }
    },
    {
      "type": "Feature",
      "properties": {
        "norad_id": 66469,
        "name": "STARLINK-35451",
        "group": "last-30-days",
        "lat": -37.513103689657044,
        "lon": 5.146468935923848,
        "alt_km": 380.6250038740227,
        "timestamp": "2025-12-02T17:49:10.799586+00:00",
        "meta_object_name": "STARLINK-35451",
        "meta_object_id": "2025-262P",
        "meta_epoch": "2025-12-02T12:00:05.998752",
        "meta_mean_motion": 15.64299326,
        "meta_eccentricity": 0.0001694,
        "meta_inclination": 42.9994,
        "meta_ra_of_asc_node": 131.1199,
        "meta_arg_of_pericenter": 265.8538,
        "meta_mean_anomaly": 51.0797,
        "meta_ephemeris_type": 0,
        "meta_classification_type": "U",
        "meta_norad_cat_id": 66469,
        "meta_element_set_no": 999,
        "meta_rev_at_epoch": 399,
        "meta_bstar": -0.024593,
        "meta_mean_motion_dot": -0.02108584,
        "meta_mean_motion_ddot": 0,
        "tle_line1": "1 66469U 25262P   25336.50006943 -.02108584  00000+0 -24593-1 0  9997",
        "tle_line2": "2 66469  42.9994 131.1199 0001694 265.8538  51.0797 15.64299326  3999"
      },
      "geometry": {
        "type": "Point",
        "coordinates": [
          5.146468935923848,
          -37.513103689657044
        ]
      }
    }
  ]
}